AMC-1 (GE-1)            
1 24315U 96054A   22198.40908650  .00000050  00000+0  00000+0 0  9996
2 24315   5.6892  72.9201 0003353  43.8101 194.8295  1.00272467 31976
AMC-3 (GE-3)            
1 24936U 97050A   22198.48318098 -.00000274  00000+0  00000+0 0  9990
2 24936   4.6172  79.2313 0002977  39.6937 278.2762  1.00270796 91100
ASTRA 1G                
1 25071U 97076A   22198.35604991  .00000101  00000+0  00000+0 0  9993
2 25071   6.3118  68.0833 0003749  45.3501 329.3128  1.00274793 90162
ASTRA 2A                
1 25462U 98050A   22198.43715366  .00000056  00000+0  00000+0 0  9997
2 25462   3.4781  85.2807 0002371  23.5675  40.9310  1.00271778 31997
AMC-4 (GE-4)            
1 25954U 99060A   22198.49077396  .00000075  00000+0  00000+0 0  9996
2 25954   1.5939  91.5734 0003195  29.2768 216.1940  1.00271383 83149
NSS-11 (AAP-1)          
1 26554U 00059A   22198.47341034  .00000013  00000+0  00000+0 0  9996
2 26554   0.0210 333.3440 0002979 126.0792 182.2541  1.00272199 79821
AMC-6 (GE-6)            
1 26580U 00067A   22198.42270417  .00000093  00000+0  00000+0 0  9993
2 26580   0.0311 305.5299 0002823 186.5592 176.2695  1.00271017 79575
ASTRA 2D                
1 26638U 00081A   22198.21531218  .00000114  00000+0  00000+0 0  9993
2 26638   7.3534  60.1170 0001692  74.1164 261.9583  1.00269831 38550
AMC-8 (GE-8)            
1 26639U 00081B   22198.49077396  .00000075  00000+0  00000+0 0  9992
2 26639   2.5201  88.3035 0002853  23.3467 225.3132  1.00271217 78989
ASTRA 2C                
1 26853U 01025A   22198.48309378 -.00000273  00000+0  00000+0 0  9997
2 26853   4.6416  79.0356 0002888  40.5723 277.1123  1.00270308 30696
ASTRA 3A                
1 27400U 02015B   22198.43212174 -.00000219  00000+0  00000+0 0  9998
2 27400   7.4563  58.9923 0001287  49.8912 255.1442  1.00272549 74371
NSS-7                   
1 27414U 02019A   22198.42180639 -.00000172  00000+0  00000+0 0  9994
2 27414   5.9670  71.0848 0002200  45.9102 310.0695  1.00272274 74213
NSS-6                   
1 27603U 02057A   22198.55422028  .00000095  00000+0  00000+0 0  9994
2 27603   1.6858  91.3530 0003577  27.9080 206.0361  1.00271644 71693
AMC-11 (GE-11)          
1 28252U 04017A   22198.53104965  .00000059  00000+0  00000+0 0  9998
2 28252   0.0341 309.5182 0002481 164.2060 241.7633  1.00264708 66535
AMC-15                  
1 28446U 04041A   22198.52479904 -.00000100  00000+0  00000+0 0  9995
2 28446   0.0453 296.8151 0002670 173.8129 268.5530  1.00271405 64971
NSS-10 (AMC-12)         
1 28526U 05003A   22198.49006981 -.00000264  00000+0  00000+0 0  9991
2 28526   2.8579  87.0658 0003047  15.9101 331.2678  1.00270735 38805
ASTRA 1KR               
1 29055U 06012A   22198.50131868  .00000108  00000+0  00000+0 0  9991
2 29055   0.0406 239.4981 0002744 281.3463 334.0888  1.00274022 31380
AMC-18                  
1 29644U 06054B   22198.53660712 -.00000227  00000+0  00000+0 0  9992
2 29644   0.0355 294.2533 0002665 181.5612 289.6718  1.00271191 57196
ASTRA 1L                
1 31306U 07016A   22198.50131868  .00000108  00000+0  00000+0 0  9998
2 31306   0.0509 317.0838 0001019 110.1939  67.6793  1.00270268 30674
ASTRA 4A (SIRIUS 4)     
1 32299U 07057A   22198.40396481  .00000021  00000+0  00000+0 0  9992
2 32299   0.0193 340.5564 0003014 135.8816 328.9722  1.00271864 37335
AMC-21                  
1 33275U 08038B   22198.53104965  .00000025  00000+0  00000+0 0  9999
2 33275   0.0566 284.7658 0003166 202.2974 234.5146  1.00270890 51144
ASTRA 1M                
1 33436U 08057A   22198.50131868  .00000108  00000+0  00000+0 0  9990
2 33436   0.0279  94.8936 0005368  32.7511   7.2872  1.00269606 31380
CIEL-2                  
1 33453U 08063A   22198.48521701  .00000047  00000+0  00000+0 0  9994
2 33453   0.0225 111.3358 0003250   0.9347 228.8157  1.00271826 49782
NSS-9                   
1 33749U 09008A   22198.56783684  .00000060  00000+0  00000+0 0  9996
2 33749   0.0240 331.9160 0002201 147.3078 203.6062  1.00271274 49187
SES-7 (PROTOSTAR 2)     
1 34941U 09027A   22198.57271804 -.00000357  00000+0  00000+0 0  9999
2 34941   0.0116  53.4586 0000270 133.3026  63.0150  1.00270471 48277
NSS-12                  
1 36032U 09058A   22198.50890509  .00000060  00000+0  00000+0 0  9998
2 36032   0.0215  67.7357 0002921  48.2043  59.5519  1.00271377 46578
SES-1                   
1 36516U 10016A   22198.51229743 -.00000126  00000+0  00000+0 0  9992
2 36516   0.0436 285.7935 0002701 182.9688 269.9546  1.00271420 44698
ASTRA 3B                
1 36581U 10021A   22198.50219067  .00000125  00000+0  00000+0 0  9995
2 36581   0.0450 339.4062 0003285 147.0482  13.1190  1.00270475 44532
SES-3                   
1 37748U 11035A   22198.51229743 -.00000113  00000+0  00000+0 0  9998
2 37748   0.0246 338.6631 0003088 134.9642 263.0919  1.00271368 40249
ASTRA 1N                
1 37775U 11041A   22198.50140587  .00000108  00000+0  00000+0 0  9995
2 37775   0.0463  33.7359 0004665  47.5002  53.7635  1.00268434 30182
SES-2                   
1 37809U 11049A   22198.50674316 -.00000207  00000+0  00000+0 0  9994
2 37809   0.0290 306.7297 0002991 168.0445 275.9402  1.00271924 39617
QUETZSAT 1              
1 37826U 11054A   22198.48222177 -.00000253  00000+0  00000+0 0  9991
2 37826   0.0458 288.1304 0003115 194.1463 269.5851  1.00272315 35543
SES-4                   
1 38087U 12007A   22198.39771720 -.00000180  00000+0  00000+0 0  9992
2 38087   0.0052  14.4179 0002437 108.4092 293.5392  1.00271071 37889
SES-5                   
1 38652U 12036A   22198.28326486  .00000022  00000+0  00000+0 0  9999
2 38652   0.0595 288.6449 0002072 185.8622 287.5085  1.00270679 30133
ASTRA 2F                
1 38778U 12051A   22198.50314987  .00000138  00000+0  00000+0 0  9991
2 38778   0.0935 250.8836 0002702 282.1094 331.6355  1.00268642 26789
SES-6                   
1 39172U 13026A   22198.48945941 -.00000273  00000+0  00000+0 0  9991
2 39172   0.0235 331.3937 0002331 141.7503 317.8405  1.00271959 33371
O3B FM5                 
1 39188U 13031A   22198.26085847 -.00000025  00000+0  00000+0 0  9995
2 39188   0.0504  25.4961 0002573  91.3807 243.1455  5.00115224165457
O3B FM4                 
1 39189U 13031B   22196.91723992 -.00000024  00000+0  00000+0 0  9995
2 39189   0.0572 356.4778 0003510 169.0593 194.4693  4.99833275165400
O3B FM2                 
1 39190U 13031C   22198.38724566 -.00000025  00000+0  00000+0 0  9999
2 39190   0.0606 352.5996 0001140 104.9719 262.4374  4.99476738165537
O3B PFM                 
1 39191U 13031D   22198.43464858 -.00000025  00000+0  00000+0 0  9991
2 39191   0.0496  15.1823 0002658 100.7988 244.0423  5.00115683165097
ASTRA 2E                
1 39285U 13056A   22198.50323707  .00000138  00000+0  00000+0 0  9991
2 39285   0.0754 323.8142 0002229 149.1299  31.9985  1.00268992 32241
SES-8                   
1 39460U 13071A   22198.54157697 -.00000281  00000+0  00000+0 0  9990
2 39460   0.0516 247.3808 0002909 223.2210 114.6879  1.00271711 30087
ASTRA 5B                
1 39617U 14011B   22198.50384748  .00000143  00000+0  00000+0 0  9990
2 39617   0.0452  55.1336 0003571  62.2451  30.7674  1.00272360 30324
O3B FM3                 
1 40079U 14038A   22198.28949510 -.00000025  00000+0  00000+0 0  9992
2 40079   0.0546   3.8659 0005070 111.6114 244.5712  5.00115323141466
O3B FM7                 
1 40080U 14038B   22198.43545754 -.00000025  00000+0  00000+0 0  9993
2 40080   0.0587   2.2409 0000895 140.1200 217.6413  5.00115417146303
O3B FM6                 
1 40081U 14038C   22198.06205048 -.00000025  00000+0  00000+0 0  9992
2 40081   0.0542   2.7941 0002695 113.7174 243.5121  5.00115358146226
O3B FM8                 
1 40082U 14038D   22197.91611845 -.00000025  00000+0  00000+0 0  9992
2 40082   0.0544 359.5036 0002710 113.8979 246.6230  5.00115588146342
O3B FM10                
1 40348U 14083A   22198.34189240 -.00000025  00000+0  00000+0 0  9994
2 40348   0.0474   9.7469 0002637 105.5829 244.6936  5.00115094138314
O3B FM11                
1 40349U 14083B   22198.35537832 -.00000025  00000+0  00000+0 0  9990
2 40349   0.0516  12.2599 0002180 116.4495 231.3061  5.00115328138332
O3B FM12                
1 40350U 14083C   22198.38257030 -.00000025  00000+0  00000+0 0  9994
2 40350   0.0514  11.2228 0002671 108.8568 239.9429  5.00115193138344
O3B FM9                 
1 40351U 14083D   22198.40952627 -.00000025  00000+0  00000+0 0  9992
2 40351   0.0524  13.1019 0002588 103.5860 243.3346  5.00115560138489
ASTRA 2G                
1 40364U 14089A   22198.50314987  .00000138  00000+0  00000+0 0  9998
2 40364   0.0297  22.7661 0004440  58.3179  63.5025  1.00273204 27623
SES-9                   
1 41380U 16013A   22198.08864549 -.00000357  00000+0  00000+0 0  9997
2 41380   0.0464 271.1715 0002234 191.2143 332.7021  1.00269514 23087
SES-10                  
1 42432U 17017A   22198.19717448 -.00000284  00000+0  00000+0 0  9997
2 42432   0.0110  34.2885 0003048  86.1067 178.6740  1.00270560 19398
SES-15                  
1 42709U 17026A   22198.53104965  .00000049  00000+0  00000+0 0  9994
2 42709   0.0180   7.1053 0000595 110.2134 240.0147  1.00268233 19799
SES-11 (ECHOSTAR 105)   
1 42967U 17063A   22198.52479904 -.00000100  00000+0  00000+0 0  9997
2 42967   0.0183  45.6077 0002582  81.1754 252.4923  1.00271292 17373
SES-14                  
1 43175U 18012B   22198.20109851 -.00000290  00000+0  00000+0 0  9990
2 43175   0.0219 316.6643 0001219 158.7981 204.4113  1.00272139 16709
O3B FM15                
1 43231U 18024A   22198.47549408 -.00000025  00000+0  00000+0 0  9997
2 43231   0.0442   8.0674 0002876 110.7915 241.1659  5.00115946 79440
O3B FM16                
1 43232U 18024B   22198.52886691 -.00000025  00000+0  00000+0 0  9992
2 43232   0.0401   7.0785 0002845 112.2378 240.7082  5.00115854 79368
O3B FM14                
1 43233U 18024C   22198.36853992 -.00000025  00000+0  00000+0 0  9993
2 43233   0.0389   5.6969 0002647 114.0585 240.2669  5.00115248 79376
O3B FM13                
1 43234U 18024D   22194.82289139 -.00000020  00000+0  00000+0 0  9992
2 43234   0.0470  41.8757 0101445 178.9270 138.4307  5.00126458 79317
SES-12                  
1 43488U 18049A   22198.51644750 -.00000281  00000+0  00000+0 0  9993
2 43488   0.0156  47.5566 0000803 177.0520 351.5997  1.00270621 15078
O3B FM20                
1 44112U 19020A   22198.39527095 -.00000025  00000+0  00000+0 0  9992
2 44112   0.0475   8.9368 0002846 117.3981 233.6874  5.00115393 59996
O3B FM19                
1 44113U 19020B   22198.02223948 -.00000025  00000+0  00000+0 0  9993
2 44113   0.0499  34.0008 0002640  92.1302 233.8895  5.00115131 59842
O3B FM17                
1 44114U 19020C   22198.30270326 -.00000025  00000+0  00000+0 0  9997
2 44114   0.0454 344.5610 0002972 135.2258 240.2388  5.00115487 59943
O3B FM18                
1 44115U 19020D   22198.24924647 -.00000025  00000+0  00000+0 0  9993
2 44115   0.0476   9.4557 0002889 106.8913 243.6787  5.00115709 60066
SES-17                  
1 49332U 21095A   22197.83382812 -.00000284  00000+0  00000+0 0  9997
2 49332   0.0195  89.0199 0001217  30.2103  48.4491  1.00269324  3497
SES-22                  
1 52933U 22071A   22197.35177323  .00000103  00000+0  00000+0 0  9998
2 52933   0.0434 237.6176 0000452 324.1872  76.9856  1.00272943   194
